satname,norad_id,inclination_deg,eccentricity,mean_motion_rev_per_day,perigee_km,apogee_km,l1,l2
STARLINK-1417,45693,53.0516,0.000629,15.1583431,514.108876851893,522.784779307618,1 45693U 20035AN  26140.86768597  .00012034  00000+0  63677-3 0  9997,2 45693  53.0516  86.2787 0006290  78.4194 281.7505 15.15834310329831
STARLINK-1420,45695,53.0463,0.0006333,15.6607349,365.8794893679187,374.4268737118573,1 45695U 20035AQ  26140.97393481  .00035326  00000+0  34186-3 0  9999,2 45695  53.0463  29.9219 0006333  80.5836 279.5895 15.66073490330641
STARLINK-1422,45696,53.157,0.0003859,15.33363365,463.145003664843,468.4271434930306,1 45696U 20035AR  26140.96474142  .00021417  00000+0  66443-3 0  9990,2 45696  53.1570  73.3410 0003859  93.8033 266.3410 15.33363365330042
STARLINK-1351,45697,53.0449,0.0005868,15.64610784,370.3960067296566,378.3207352970776,1 45697U 20035AS  26140.97682649  .00035755  00000+0  36667-3 0  9990,2 45697  53.0449  30.1326 0005868  92.2930 267.8757 15.64610784330645
STARLINK-1400,45700,53.0438,0.000441,15.62179049,378.3830395767163,384.344919440643,1 45700U 20035AV  26140.97219780  .00064946  00000+0  72523-3 0  9992,2 45700  53.0438  32.5047 0004410  52.0103 308.1308 15.62179049330601
STARLINK-1403,45701,53.1571,0.0002954,15.32296503,466.93979451646555,470.98506085834197,1 45701U 20035AW  26140.50887748  .00022950  00000+0  73522-3 0  9996,2 45701  53.1571  62.8766 0002954  99.9155 260.2180 15.32296503330140
STARLINK-1407,45703,53.0279,0.0003245,15.71015581,353.8080396791138,358.17849022106657,1 45703U 20035AY  26140.23318463  .00129692  00000+0  10024-2 0  9999,2 45703  53.0279 323.9007 0003245   0.0265   0.0751 15.71015581331507
STARLINK-1411,45706,53.034,0.0002006,15.81714522,324.2470853007362,326.93662131668407,1 45706U 20035BB  26141.00002315  .00156782  00000+0  75353-3 0  9991,2 45706  53.0340 343.2634 0002006 237.7236 355.2944 15.81714522  5892
STARLINK-1423,45710,53.0447,0.00074,15.66996448,362.51132741100537,372.4948747606113,1 45710U 20035BF  26140.95158950  .00038477  00000+0  35808-3 0  9997,2 45710  53.0447  29.6005 0007400  53.7780 306.3919 15.66996448330639
STARLINK-1433,45711,53.0445,0.0007396,15.66583906,363.69735610143016,373.6772586168745,1 45711U 20035BG  26140.93217769  .00036193  00000+0  34287-3 0  9993,2 45711  53.0445  28.2406 0007396  58.1919 301.9816 15.66583906330655
STARLINK-1434,45712,53.0505,0.0003564,15.32763897,465.1305980633015,470.01021830385525,1 45712U 20035BH  26140.94614817  .00023989  00000+0  75668-3 0  9997,2 45712  53.0505  43.6707 0003564  57.8861 302.2485 15.32763897330459
STARLINK-1465,45731,53.0459,0.0002025,15.61044846,383.2682729008784,386.00719666846635,1 45731U 20038B   26140.53123271  .00064087  00000+0  74804-3 0  9990,2 45731  53.0459 235.4407 0002025 306.6418  53.4408 15.61044846327566
STARLINK-1471,45735,53.0436,0.0003019,15.52500645,407.3785253348269,411.47685689532227,1 45735U 20038F   26140.30834542  .00017914  00000+0  29426-3 0  9996,2 45735  53.0436 157.8939 0003019  65.8470 294.2855 15.52500645328643
STARLINK-1480,45741,53.0469,0.000588,15.62707123,375.86741066636023,383.81479291406686,1 45741U 20038M   26140.95489865  .00051994  00000+0  57069-3 0  9998,2 45741  53.0469 226.9658 0005880 334.9222  25.1505 15.62707123327738
STARLINK-1500,45744,53.0342,0.0002141,15.38289251,449.7057745082557,452.6300828787216,1 45744U 20038Q   26140.67480498  .00016762  00000+0  44698-3 0  9991,2 45744  53.0342 214.1004 0002141  97.0049 263.1198 15.38289251327884
STARLINK-1504,45746,53.0192,0.0003629,15.5772031,391.7988323633117,396.71423559027335,1 45746U 20038S   26140.45023728  .00024178  00000+0  32578-3 0  9992,2 45746  53.0192 154.7077 0003629  46.0180 314.1130 15.57720310328689
STARLINK-1506,45747,53.0755,0.0003422,15.27969004,479.5370258860412,484.23202461792334,1 45747U 20038T   26140.71350507  .00005647  00000+0  21671-3 0  9992,2 45747  53.0755 228.7094 0003422 114.9527 245.1828 15.27969004327696
STARLINK-1464,45751,53.0449,0.0003238,15.52868129,406.1593372604466,410.5542706478882,1 45751U 20038X   26140.53535637  .00038641  00000+0  61622-3 0  9996,2 45751  53.0449 220.6866 0003238 345.2335  14.8579 15.52868129327788
STARLINK-1477,45754,53.0467,7.38e-05,15.17994494,511.39399545565084,512.4109652829529,1 45754U 20038AA  26140.54747655  .00016082  00000+0  79504-3 0  9998,2 45754  53.0467 245.4119 0000738 206.8515 153.2441 15.17994494327435
STARLINK-1478,45755,53.0443,0.0003786,15.66285931,366.98829951242897,372.0976427865826,1 45755U 20038AB  26140.90527860  .00047937  00000+0  45762-3 0  9995,2 45755  53.0443 205.4525 0003786   3.3835 356.7205 15.66285931328014
STARLINK-1493,45759,53.0463,0.0006371,15.62072333,377.36516073794246,385.9785091554313,1 45759U 20038AF  26140.88609741  .00057641  00000+0  64728-3 0  9991,2 45759  53.0463 214.7491 0006371 326.2462  33.8144 15.62072333327886
STARLINK-1494,45760,53.0396,0.0006491,15.95469578,282.6799317092473,291.3326207104228,1 45760U 20038AG  26141.00002315  .00285417  43196-4  70531-3 0  9993,2 45760  53.0396 146.9642 0006491  22.7597 190.1110 15.95469578  5933
STARLINK-1502,45764,53.0452,0.0006292,15.58347063,388.18050149613555,396.70059628365925,1 45764U 20038AL  26140.51171396  .00057416  00000+0  74331-3 0  9998,2 45764  53.0452 219.9040 0006292 296.9406  63.0963 15.58347063327794
STARLINK-1470,45772,53.0422,0.0003515,15.33805671,462.0651051632931,466.8754580822733,1 45772U 20038AU  26140.86908908  .00018979  00000+0  58212-3 0  9993,2 45772  53.0422 197.6977 0003515 338.7905  21.2949 15.33805671328131
STARLINK-1482,45773,53.1573,0.0003646,15.36223983,454.7951472947698,459.7795387256929,1 45773U 20038AV  26140.90807545  .00028496  00000+0  80323-3 0  9997,2 45773  53.1573 214.0318 0003646 334.0774  26.0046 15.36223983327921
STARLINK-1496,45780,53.0456,0.0007544,15.5979796,383.1367594002986,393.3458710022742,1 45780U 20038BC  26140.52801145  .00050528  00000+0  62027-3 0  9995,2 45780  53.0456 190.8408 0007544  17.2745 342.8522 15.59797960328181
STARLINK-1513,45786,53.1585,0.0001065,15.3172049,469.9495173876685,471.4083151778368,1 45786U 20038BJ  26140.69765514  .00002174  00000+0  81752-4 0  9999,2 45786  53.1585 216.3006 0001065  79.5045 280.6076 15.31720490327877
STARLINK-1522,46027,53.0614,0.000283,15.12256485,527.3654159847001,531.2750367748313,1 46027U 20055A   26140.45973571  .00015561  00000+0  90462-3 0  9996,2 46027  53.0614 162.1797 0002830 359.2685   0.8302 15.12256485319739
STARLINK-1523,46028,53.1632,0.0001693,15.30201306,474.050898096335,476.3714417866777,1 46028U 20055B   26140.30318679  .00000435  00000+0  26824-4 0  9999,2 46028  53.1632 154.0700 0001693  82.8835 277.2359 15.30201306319865
STARLINK-1526,46029,53.1605,0.0001217,15.3019575,474.3937046914343,476.0618136738194,1 46029U 20055C   26140.75407464 -.00000851  00000+0 -16618-4 0  9994,2 46029  53.1605 151.9814 0001217  83.0668 277.0471 15.30195750319922
STARLINK-1555,46032,53.1579,0.000127,15.30205028,474.3296829525261,476.0704305649433,1 46032U 20055F   26140.73828258  .00000188  00000+0  18478-4 0  9991,2 46032  53.1579 152.0351 0001270  90.3149 269.7997 15.30205028319929
STARLINK-1556,46033,53.162,0.0001346,15.30190703,474.32036380112913,476.1652936510218,1 46033U 20055G   26140.32953537  .00000703  00000+0  35858-4 0  9990,2 46033  53.1620 153.9556 0001346  91.5742 268.5413 15.30190703319833
STARLINK-1557,46034,53.1614,0.0001223,15.30193608,474.3959875533574,476.0723221378321,1 46034U 20055H   26140.72457996  .00000431  00000+0  26668-4 0  9990,2 46034  53.1614 152.1158 0001223  85.2671 274.8469 15.30193608319895
STARLINK-1558,46035,53.1594,0.000116,15.30193987,474.43803228957313,476.02801413495854,1 46035U 20055J   26140.73195487  .00000364  00000+0  24416-4 0  9990,2 46035  53.1594 152.0808 0001160  86.3364 273.7769 15.30193987319920
STARLINK-1560,46036,53.1613,0.0001112,15.30206813,474.432636616797,475.9568175929062,1 46036U 20055K   26140.45699013  .00001221  00000+0  53322-4 0  9995,2 46036  53.1613 153.3665 0001112  90.0603 270.0526 15.30206813319882
STARLINK-1569,46039,53.1607,0.0001338,15.3019482,474.3135554329365,476.1475165855718,1 46039U 20055N   26140.73511419 -.00000327  00000+0  11028-5 0  9997,2 46039  53.1607 152.0548 0001338  85.2742 274.8411 15.30194820319917
STARLINK-1582,46043,53.159,0.0001159,15.31716726,469.89635727860696,471.4839154088113,1 46043U 20055S   26140.31342718  .00001616  00000+0  63797-4 0  9990,2 46043  53.1590 153.6210 0001159  87.5215 272.5919 15.31716726319854
STARLINK-1591,46045,53.1591,0.0001153,15.30194334,474.4417936820073,476.02218057043956,1 46045U 20055U   26140.76776996  .00001073  00000+0  48366-4 0  9992,2 46045  53.1591 151.9064 0001153  79.7735 280.3396 15.30194334319905
STARLINK-1524,46047,53.1603,0.000113,15.31713834,469.92483866133625,471.4726755424417,1 46047U 20055W   26140.28276086  .00002113  00000+0  79788-4 0  9994,2 46047  53.1603 141.0594 0001130  82.5647 277.5483 15.31713834320032
STARLINK-1527,46048,53.1593,0.0001181,15.31716842,469.88094411609563,471.4986370040251,1 46048U 20055X   26140.40859266  .00002848  00000+0  10347-3 0  9996,2 46048  53.1593 140.4557 0001181  89.5981 270.5156 15.31716842320028
STARLINK-1540,46051,53.1636,0.0001149,15.31703921,469.94137232984394,471.51524157738277,1 46051U 20055AA  26140.72089659  .00002580  00000+0  94864-4 0  9996,2 46051  53.1636 139.2093 0001149  91.4467 268.6666 15.31703921320114
STARLINK-1541,46052,53.1595,0.0002155,15.7807016,334.46197483664764,337.3557285987381,1 46052U 20055AB  26140.92658385  .00101509  00000+0  58111-3 0  9992,2 46052  53.1595 128.4621 0002155  88.3891 271.7378 15.78070160320242
STARLINK-1543,46053,53.1592,0.0001796,15.31698501,469.5144045594152,471.97452278116634,1 46053U 20055AC  26140.95391743  .00000278  00000+0  20740-4 0  9997,2 46053  53.1592 137.9313 0001796  76.4315 283.6886 15.31698501320141
